$$SOE
2460154.500000000, A.D. 2023-Jul-29 00:00:00.0000, 2.550585257147622E+08, 4.575689846300469E+08, 5.700380040156475E+07,
2460161.500000000, A.D. 2023-Aug-05 00:00:00.0000, 2.473001039598106E+08, 4.626604326428570E+08, 5.833930243828744E+07,
2460168.500000000, A.D. 2023-Aug-12 00:00:00.0000, 2.394602549773664E+08, 4.675990828592132E+08, 5.965549480519032E+07,
2460175.500000000, A.D. 2023-Aug-19 00:00:00.0000, 2.315419556761606E+08, 4.723840778028529E+08, 6.095204213006675E+07,
2460182.500000000, A.D. 2023-Aug-26 00:00:00.0000, 2.235481763878036E+08, 4.770146123701515E+08, 6.222861803057405E+07,
2460189.500000000, A.D. 2023-Sep-02 00:00:00.0000, 2.154818801789283E+08, 4.814899329376547E+08, 6.348490501053751E+07,
2460196.500000000, A.D. 2023-Sep-09 00:00:00.0000, 2.073460222142306E+08, 4.858093363675431E+08, 6.472059434417498E+07,
2460203.500000000, A.D. 2023-Sep-16 00:00:00.0000, 1.991435493374618E+08, 4.899721688541124E+08, 6.593538592839691E+07,
2460210.500000000, A.D. 2023-Sep-23 00:00:00.0000, 1.908774002856286E+08, 4.939778248993663E+08, 6.712898808883476E+07,
2460217.500000000, A.D. 2023-Sep-30 00:00:00.0000, 1.825505061962501E+08, 4.978257476095785E+08, 6.830111746844900E+07,
2460224.500000000, A.D. 2023-Oct-07 00:00:00.0000, 1.741657890531192E+08, 5.015154297696184E+08, 6.945149917035797E+07,
2460231.500000000, A.D. 2023-Oct-14 00:00:00.0000, 1.657261591083090E+08, 5.050464123816373E+08, 7.057986678897950E+07,
2460238.500000000, A.D. 2023-Oct-21 00:00:00.0000, 1.572345145079810E+08, 5.084182822724394E+08, 7.168596216490653E+07,
2460245.500000000, A.D. 2023-Oct-28 00:00:00.0000, 1.486937416973847E+08, 5.116306710297419E+08, 7.276953517908251E+07,
2460252.500000000, A.D. 2023-Nov-04 00:00:00.0000, 1.401067153534665E+08, 5.146832544959766E+08, 7.383034363800395E+07,
2460259.500000000, A.D. 2023-Nov-11 00:00:00.0000, 1.314762980205764E+08, 5.175757522196044E+08, 7.486815318489736E+07,
2460266.500000000, A.D. 2023-Nov-18 00:00:00.0000, 1.228053396669763E+08, 5.203079268003206E+08, 7.588273721195149E+07,
2460273.500000000, A.D. 2023-Nov-25 00:00:00.0000, 1.140966772337225E+08, 5.228795831517524E+08, 7.687387676933834E+07,
2460280.500000000, A.D. 2023-Dec-02 00:00:00.0000, 1.053531342033445E+08, 5.252905676713667E+08, 7.784136046801552E+07,
2460287.500000000, A.D. 2023-Dec-09 00:00:00.0000, 9.657752026556315E+07, 5.275407672591471E+08, 7.878498436466184E+07,
2460294.500000000, A.D. 2023-Dec-16 00:00:00.0000, 8.777263136685610E+07, 5.296301081977261E+08, 7.970455180350316E+07,
2460301.500000000, A.D. 2023-Dec-23 00:00:00.0000, 7.894125049143355E+07, 5.315585555816269E+08, 8.059987323925337E+07,
2460308.500000000, A.D. 2023-Dec-30 00:00:00.0000, 7.008614783282930E+07, 5.333261143449571E+08, 8.147076624971107E+07,
2460315.500000000, A.D. 2024-Jan-06 00:00:00.0000, 6.121007858270416E+07, 5.349328295255632E+08, 8.231705570720020E+07,
2460322.500000000, A.D. 2024-Jan-13 00:00:00.0000, 5.231578150731771E+07, 5.363787839582660E+08, 8.313857366997138E+07,
2460329.500000000, A.D. 2024-Jan-20 00:00:00.0000, 4.340597953401703E+07, 5.376640964834050E+08, 8.393515913361996E+07,
2460336.500000000, A.D. 2024-Jan-27 00:00:00.0000, 3.448338031884351E+07, 5.387889213234037E+08, 8.470665788179815E+07,
2460343.500000000, A.D. 2024-Feb-03 00:00:00.0000, 2.555067636621437E+07, 5.397534476783816E+08, 8.545292239775449E+07,
2460350.500000000, A.D. 2024-Feb-10 00:00:00.0000, 1.661054497718389E+07, 5.405578992495495E+08, 8.617381178731453E+07,
2460357.500000000, A.D. 2024-Feb-17 00:00:00.0000, 7.665648164212058E+06, 5.412025336982723E+08, 8.686919170111817E+07,
2460364.500000000, A.D. 2024-Feb-24 00:00:00.0000, -1.281367432347247E+06, 5.416876420555055E+08, 8.753893425392124E+07,
2460371.500000000, A.D. 2024-Mar-02 00:00:00.0000, -1.022787059741847E+07, 5.420135480489259E+08, 8.818291793552041E+07,
2460378.500000000, A.D. 2024-Mar-09 00:00:00.0000, -1.917124542601104E+07, 5.421806072847109E+08, 8.880102749535948E+07,
2460385.500000000, A.D. 2024-Mar-16 00:00:00.0000, -2.810889064523342E+07, 5.421892064811416E+08, 8.939315378066608E+07,
2460392.500000000, A.D. 2024-Mar-23 00:00:00.0000, -3.703821847788909E+07, 5.420397638634312E+08, 8.995919362834200E+07,
2460399.500000000, A.D. 2024-Mar-30 00:00:00.0000, -4.595665528893024E+07, 5.417327306931525E+08, 9.049905001398730E+07,
2460406.500000000, A.D. 2024-Apr-06 00:00:00.0000, -5.486164375905969E+07, 5.412685905632228E+08, 9.101263215905538E+07,
2460413.500000000, A.D. 2024-Apr-13 00:00:00.0000, -6.375064303604531E+07, 5.406478572943060E+08, 9.149985533880571E+07,
2460420.500000000, A.D. 2024-Apr-20 00:00:00.0000, -7.262112781677788E+07, 5.398710741104194E+08, 9.196064069746202E+07,
2460427.500000000, A.D. 2024-Apr-27 00:00:00.0000, -8.147058787718609E+07, 5.389388135324730E+08, 9.239491516389486E+07,
2460434.500000000, A.D. 2024-May-04 00:00:00.0000, -9.029652796260111E+07, 5.378516772859385E+08, 9.280261140227836E+07,
2460441.500000000, A.D. 2024-May-11 00:00:00.0000, -9.909646780094622E+07, 5.366102961207712E+08, 9.318366776765144E+07,
2460448.500000000, A.D. 2024-May-18 00:00:00.0000, -1.078679421574484E+08, 5.352153295654016E+08, 9.353802826082611E+07,
2460455.500000000, A.D. 2024-May-25 00:00:00.0000, -1.166085009067572E+08, 5.336674656079946E+08, 9.386564248004064E+07,
2460462.500000000, A.D. 2024-Jun-01 00:00:00.0000, -1.253157090631272E+08, 5.319674202478738E+08, 9.416646555945170E+07,
2460469.500000000, A.D. 2024-Jun-08 00:00:00.0000, -1.339871465227206E+08, 5.301159368944051E+08, 9.444045807027480E+07,
2460476.500000000, A.D. 2024-Jun-15 00:00:00.0000, -1.426204071188966E+08, 5.281137861586387E+08, 9.468758589275041E+07,
2460483.500000000, A.D. 2024-Jun-22 00:00:00.0000, -1.512130979959390E+08, 5.259617672132657E+08, 9.490782024745753E+07,
2460490.500000000, A.D. 2024-Jun-29 00:00:00.0000, -1.597628414223371E+08, 5.236607088998064E+08, 9.510113793178436E+07,
2460497.500000000, A.D. 2024-Jul-06 00:00:00.0000, -1.682672763985985E+08, 5.212114681098022E+08, 9.526752131667539E+07,
2460504.500000000, A.D. 2024-Jul-13 00:00:00.0000, -1.767240581121186E+08, 5.186149282631291E+08, 9.540695815575060E+07,
2460511.500000000, A.D. 2024-Jul-20 00:00:00.0000, -1.851308572261196E+08, 5.158719990329398E+08, 9.551944148320675E+07,
2460518.500000000, A.D. 2024-Jul-27 00:00:00.0000, -1.934853596592459E+08, 5.129836163582369E+08, 9.560496958246189E+07,
2460525.500000000, A.D. 2024-Aug-03 00:00:00.0000, -2.017852665834196E+08, 5.099507423694417E+08, 9.566354596997613E+07,
2460532.500000000, A.D. 2024-Aug-10 00:00:00.0000, -2.100282944745632E+08, 5.067743652229862E+08, 9.569517937867609E+07,
2460539.500000000, A.D. 2024-Aug-17 00:00:00.0000, -2.182121751690454E+08, 5.034554988670619E+08, 9.569988373827472E+07,
2460546.500000000, A.D. 2024-Aug-24 00:00:00.0000, -2.263346558981452E+08, 4.999951827164947E+08, 9.567767814783797E+07,
2460553.500000000, A.D. 2024-Aug-31 00:00:00.0000, -2.343934991850933E+08, 4.963944811752735E+08, 9.562858682462317E+07,
2460560.500000000, A.D. 2024-Sep-07 00:00:00.0000, -2.423864822395210E+08, 4.926544831329788E+08, 9.555263900564250E+07,
2460567.500000000, A.D. 2024-Sep-14 00:00:00.0000, -2.503113957646849E+08, 4.887763024309860E+08, 9.544986887525275E+07,
2460574.500000000, A.D. 2024-Sep-21 00:00:00.0000, -2.581660442069210E+08, 4.847610797115803E+08, 9.532031573846331E+07,
2460581.500000000, A.D. 2024-Sep-28 00:00:00.0000, -2.659482479344724E+08, 4.806099824224095E+08, 9.516402422062007E+07,
2460588.500000000, A.D. 2024-Oct-05 00:00:00.0000, -2.736558436759031E+08, 4.763242029765122E+08, 9.498104415655634E+07,
2460595.500000000, A.D. 2024-Oct-12 00:00:00.0000, -2.812866835800330E+08, 4.719049580477451E+08, 9.477143044581559E+07,
2460602.500000000, A.D. 2024-Oct-19 00:00:00.0000, -2.888386346490129E+08, 4.673534887315865E+08, 9.453524301254466E+07,
2460609.500000000, A.D. 2024-Oct-26 00:00:00.0000, -2.963095785769268E+08, 4.626710607700616E+08, 9.427254680748808E+07,
2460616.500000000, A.D. 2024-Nov-02 00:00:00.0000, -3.036974117366948E+08, 4.578589646922213E+08, 9.398341181629068E+07,
2460623.500000000, A.D. 2024-Nov-09 00:00:00.0000, -3.110000452189175E+08, 4.529185158908016E+08, 9.366791306694111E+07,
2460630.500000000, A.D. 2024-Nov-16 00:00:00.0000, -3.182154048970058E+08, 4.478510546353469E+08, 9.332613063403833E+07,
2460637.500000000, A.D. 2024-Nov-23 00:00:00.0000, -3.253414314719061E+08, 4.426579459719374E+08, 9.295814963155755E+07,
2460644.500000000, A.D. 2024-Nov-30 00:00:00.0000, -3.323760802883702E+08, 4.373405794668336E+08, 9.256406017159435E+07,
2460651.500000000, A.D. 2024-Dec-07 00:00:00.0000, -3.393173205036802E+08, 4.319003692145340E+08, 9.214395728508317E+07,
2460658.500000000, A.D. 2024-Dec-14 00:00:00.0000, -3.461631342981679E+08, 4.263387553342763E+08, 9.169794096787986E+07,
2460665.500000000, A.D. 2024-Dec-21 00:00:00.0000, -3.529115184467794E+08, 4.206572057149001E+08, 9.122611646378967E+07,
2460672.500000000, A.D. 2024-Dec-28 00:00:00.0000, -3.595604862787137E+08, 4.148572150407940E+08, 9.072859436121482E+07,
2460679.500000000, A.D. 2025-Jan-04 00:00:00.0000, -3.661080674277880E+08, 4.089403034738171E+08, 9.020549045936972E+07,
2460686.500000000, A.D. 2025-Jan-11 00:00:00.0000, -3.725523071960079E+08, 4.029080166508558E+08, 8.965692570712337E+07,
2460693.500000000, A.D. 2025-Jan-18 00:00:00.0000, -3.788912664478781E+08, 3.967619260788403E+08, 8.908302622389442E+07,
2460700.500000000, A.D. 2025-Jan-25 00:00:00.0000, -3.851230217919096E+08, 3.905036294527496E+08, 8.848392334171768E+07,
2460707.500000000, A.D. 2025-Feb-01 00:00:00.0000, -3.912456658597717E+08, 3.841347508662102E+08, 8.785975364880860E+07,
2460714.500000000, A.D. 2025-Feb-08 00:00:00.0000, -3.972573076246786E+08, 3.776569409340456E+08, 8.721065903100829E+07,
2460721.500000000, A.D. 2025-Feb-15 00:00:00.0000, -4.031560727301107E+08, 3.710718768063911E+08, 8.653678670688699E+07,
$$EOE